{
  "type": "FeatureCollection",
  "features": [
    {
      "type": "Feature",
      "properties": {
        "norad_id": 66484,
        "name": "STARLINK-35371",
        "group": "last-30-days",
        "lat": 14.57560539661011,
        "lon": -66.09831339757456,
        "alt_km": 375.66896090078717,
        "timestamp": "2025-12-02T15:49:05.948854+00:00",
        "meta_object_name": "STARLINK-35371",
        "meta_object_id": "2025-262AE",
        "meta_epoch": "2025-12-02T06:00:02.999808",
        "meta_mean_motion": 15.65434719,
        "meta_eccentricity": 0.00017972,
        "meta_inclination": 42.9995,
        "meta_ra_of_asc_node": 132.5488,
        "meta_arg_of_pericenter": 269.9995,
        "meta_mean_anomaly": 101.5996,
        "meta_ephemeris_type": 0,
        "meta_classification_type": "U",
        "meta_norad_cat_id": 66484,
        "meta_element_set_no": 999,
        "meta_rev_at_epoch": 395,
        "meta_bstar": -0.023380982,
        "meta_mean_motion_dot": -0.02100036,
        "meta_mean_motion_ddot": 0,
        "tle_line1": "1 66484U 25262AE  25336.25003472 -.02100036  00000+0 -23381-1 0  9998",
        "tle_line2": "2 66484  42.9995 132.5488 0001797 269.9995 101.5996 15.65434719  3955"
      },
      "geometry": {
        "type": "Point",
        "coordinates": [
          -66.09831339757456,
          14.57560539661011
        ]
      }
    },
    {
      "type": "Feature",
      "properties": {
        "norad_id": 66485,
        "name": "STARLINK-34774",
        "group": "last-30-days",
        "lat": -23.489750682407717,
        "lon": 32.534024360196696,
        "alt_km": 346.42274451537014,
        "timestamp": "2025-12-02T15:49:05.948865+00:00",
        "meta_object_name": "STARLINK-34774",
        "meta_object_id": "2025-263A",
        "meta_epoch": "2025-12-02T06:00:02.999808",
        "meta_mean_motion": 15.75145374,
        "meta_eccentricity": 0.00020375,
        "meta_inclination": 42.9989,
        "meta_ra_of_asc_node": 187.2149,
        "meta_arg_of_pericenter": 274.6174,
        "meta_mean_anomaly": 138.8414,
        "meta_ephemeris_type": 0,
        "meta_classification_type": "U",
        "meta_norad_cat_id": 66485,
        "meta_element_set_no": 999,
        "meta_rev_at_epoch": 394,
        "meta_bstar": -0.001785592,
        "meta_mean_motion_dot": -0.00267524,
        "meta_mean_motion_ddot": 0,
        "tle_line1": "1 66485U 25263A   25336.25003472 -.00267524  00000+0 -17856-2 0  9995",
        "tle_line2": "2 66485  42.9989 187.2149 0002037 274.6174 138.8414 15.75145374  3944"
      },
      "geometry": {
        "type": "Point",
        "coordinates": [
          32.534024360196696,
          -23.489750682407717
        ]
      }
    },
    {
      "type": "Feature",
      "properties": {
        "norad_id": 66486,
        "name": "STARLINK-34844",
        "group": "last-30-days",
        "lat": -24.639158685461542,
        "lon": 34.214696287313885,
        "alt_km": 346.3264534707787,
        "timestamp": "2025-12-02T15:49:05.948877+00:00",
        "meta_object_name": "STARLINK-34844",
        "meta_object_id": "2025-263B",
        "meta_epoch": "2025-12-02T06:00:02.999808",
        "meta_mean_motion": 15.75105156,
        "meta_eccentricity": 0.00018403,
        "meta_inclination": 42.9989,
        "meta_ra_of_asc_node": 187.2095,
        "meta_arg_of_pericenter": 265.2841,
        "meta_mean_anomaly": 150.1114,
        "meta_ephemeris_type": 0,
        "meta_classification_type": "U",
        "meta_norad_cat_id": 66486,
        "meta_element_set_no": 999,
        "meta_rev_at_epoch": 390,
        "meta_bstar": -0.0013433589,
        "meta_mean_motion_dot": -0.00202554,
        "meta_mean_motion_ddot": 0,
        "tle_line1": "1 66486U 25263B   25336.25003472 -.00202554  00000+0 -13434-2 0  9996",
        "tle_line2": "2 66486  42.9989 187.2095 0001840 265.2841 150.1114 15.75105156  3907"
      },
      "geometry": {
        "type": "Point",
        "coordinates": [
          34.214696287313885,
          -24.639158685461542
        ]
      }
    },
    {
      "type": "Feature",
      "properties": {
        "norad_id": 66487,
        "name": "STARLINK-34733",
        "group": "last-30-days",
        "lat": -25.76229867495522,
        "lon": 35.91612353706957,
        "alt_km": 346.737926879091,
        "timestamp": "2025-12-02T15:49:05.948889+00:00",
        "meta_object_name": "STARLINK-34733",
        "meta_object_id": "2025-263C",
        "meta_epoch": "2025-12-02T06:00:02.999808",
        "meta_mean_motion": 15.75133516,
        "meta_eccentricity": 0.00016485,
        "meta_inclination": 42.999,
        "meta_ra_of_asc_node": 187.205,
        "meta_arg_of_pericenter": 278.9818,
        "meta_mean_anomaly": 138.3175,
        "meta_ephemeris_type": 0,
        "meta_classification_type": "U",
        "meta_norad_cat_id": 66487,
        "meta_element_set_no": 999,
        "meta_rev_at_epoch": 395,
        "meta_bstar": -0.0017139564,
        "meta_mean_motion_dot": -0.00256972,
        "meta_mean_motion_ddot": 0,
        "tle_line1": "1 66487U 25263C   25336.25003472 -.00256972  00000+0 -17140-2 0  9998",
        "tle_line2": "2 66487  42.9990 187.2050 0001648 278.9818 138.3175 15.75133516  3953"
      },
      "geometry": {
        "type": "Point",
        "coordinates": [
          35.91612353706957,
          -25.76229867495522
        ]
      }
    },
    {
      "type": "Feature",
      "properties": {
        "norad_id": 66488,
        "name": "STARLINK-35515",
        "group": "last-30-days",
        "lat": -26.86831011653938,
        "lon": 37.654683211505116,
        "alt_km": 346.7983467201975,
        "timestamp": "2025-12-02T15:49:05.948900+00:00",
        "meta_object_name": "STARLINK-35515",
        "meta_object_id": "2025-263D",
        "meta_epoch": "2025-12-02T06:00:02.999808",
        "meta_mean_motion": 15.75133515,
        "meta_eccentricity": 0.00016323,
        "meta_inclination": 42.9991,
        "meta_ra_of_asc_node": 187.2003,
        "meta_arg_of_pericenter": 278.9895,
        "meta_mean_anomaly": 140.228,
        "meta_ephemeris_type": 0,
        "meta_classification_type": "U",
        "meta_norad_cat_id": 66488,
        "meta_element_set_no": 999,
        "meta_rev_at_epoch": 395,
        "meta_bstar": -0.0017403075,
        "meta_mean_motion_dot": -0.00260798,
        "meta_mean_motion_ddot": 0,
        "tle_line1": "1 66488U 25263D   25336.25003472 -.00260798  00000+0 -17403-2 0  9992",
        "tle_line2": "2 66488  42.9991 187.2003 0001632 278.9895 140.2280 15.75133515  3959"
      },
      "geometry": {
        "type": "Point",
        "coordinates": [
          37.654683211505116,
          -26.86831011653938
        ]
      }
    },
    {
      "type": "Feature",
      "properties": {
        "norad_id": 66489,
        "name": "STARLINK-35696",
        "group": "last-30-days",
        "lat": -27.95921936061929,
        "lon": 39.43807813169763,
        "alt_km": 346.4601766085425,
        "timestamp": "2025-12-02T15:49:05.948910+00:00",
        "meta_object_name": "STARLINK-35696",
        "meta_object_id": "2025-263E",
        "meta_epoch": "2025-12-02T06:00:02.999808",
        "meta_mean_motion": 15.75124079,
        "meta_eccentricity": 0.00017279,
        "meta_inclination": 42.999,
        "meta_ra_of_asc_node": 187.1949,
        "meta_arg_of_pericenter": 260.539,
        "meta_mean_anomaly": 160.5955,
        "meta_ephemeris_type": 0,
        "meta_classification_type": "U",
        "meta_norad_cat_id": 66489,
        "meta_element_set_no": 999,
        "meta_rev_at_epoch": 395,
        "meta_bstar": -0.0015067463,
        "meta_mean_motion_dot": -0.00226674,
        "meta_mean_motion_ddot": 0,
        "tle_line1": "1 66489U 25263E   25336.25003472 -.00226674  00000+0 -15067-2 0  9992",
        "tle_line2": "2 66489  42.9990 187.1949 0001727 260.5390 160.5955 15.75124079  3958"
      },
      "geometry": {
        "type": "Point",
        "coordinates": [
          39.43807813169763,
          -27.95921936061929
        ]
      }
    },
    {
      "type": "Feature",
      "properties": {
        "norad_id": 66490,
        "name": "STARLINK-35693",
        "group": "last-30-days",
        "lat": -29.014194108727303,
        "lon": 41.23634808663364,
        "alt_km": 346.87879209332095,
        "timestamp": "2025-12-02T15:49:05.948922+00:00",
        "meta_object_name": "STARLINK-35693",
        "meta_object_id": "2025-263F",
        "meta_epoch": "2025-12-02T06:00:02.999808",
        "meta_mean_motion": 15.75139521,
        "meta_eccentricity": 0.00016304,
        "meta_inclination": 42.9992,
        "meta_ra_of_asc_node": 187.1902,
        "meta_arg_of_pericenter": 278.9335,
        "meta_mean_anomaly": 144.1129,
        "meta_ephemeris_type": 0,
        "meta_classification_type": "U",
        "meta_norad_cat_id": 66490,
        "meta_element_set_no": 999,
        "meta_rev_at_epoch": 395,
        "meta_bstar": -0.0017862665,
        "meta_mean_motion_dot": -0.00267532,
        "meta_mean_motion_ddot": 0,
        "tle_line1": "1 66490U 25263F   25336.25003472 -.00267532  00000+0 -17863-2 0  9998",
        "tle_line2": "2 66490  42.9992 187.1902 0001630 278.9335 144.1129 15.75139521  3955"
      },
      "geometry": {
        "type": "Point",
        "coordinates": [
          41.23634808663364,
          -29.014194108727303
        ]
      }
    }
  ]
}